STARLINK-31794          
1 59803U 24093X   26068.43870614 -.00013177  00000+0 -46973-3 0  9990
2 59803  43.0046 210.6044 0001704 290.9805  69.0864 15.27609693102729
TEVEL2-2                
1 63219U 25052K   26068.64848259  .00020339  00000+0  69428-3 0  9991
2 63219  97.3987 324.7700 0004693 105.7930 254.3828 15.30343745 54855
